OBJECT_NAME,OBJECT_ID,EPOCH,MEAN_MOTION,ECCENTRICITY,INCLINATION,RA_OF_ASC_NODE,ARG_OF_PERICENTER,MEAN_ANOMALY,EPHEMERIS_TYPE,CLASSIFICATION_TYPE,NORAD_CAT_ID,ELEMENT_SET_NO,REV_AT_EPOCH,BSTAR,MEAN_MOTION_DOT,MEAN_MOTION_DDOT
ONEWEB-0617,2023-004U,2026-07-01T02:32:04.709184,13.11416250,.0002156,87.8881,18.2976,79.7461,280.3910,0,U,55158,999,16768,-.12304E-2,-.423E-5,0
ONEWEB-0618,2023-004V,2026-07-01T05:03:20.643840,15.13258946,.0009824,86.9089,171.9403,233.2190,126.8149,0,U,55159,999,18438,.41726E-3,.7456E-4,0
ONEWEB-0619,2023-004W,2026-06-30T22:04:08.549760,13.17649761,.0001644,87.9143,3.1173,77.2938,282.8377,0,U,55160,999,16940,-.17253E-3,-.54E-6,0
ONEWEB-0620,2023-004X,2026-07-01T02:24:44.957376,13.11414839,.0002044,87.8873,18.3064,92.3521,267.7841,0,U,55161,999,16765,-.82352E-3,-.279E-5,0
ONEWEB-0621,2023-004Y,2026-07-01T01:13:57.065952,13.11418157,.0001879,87.8888,18.3064,80.8731,279.2609,0,U,55162,999,16762,-.44551E-3,-.145E-5,0
ONEWEB-0622,2023-004Z,2026-07-01T01:21:17.090784,13.11417886,.000248,87.8890,18.3079,79.5010,280.6397,0,U,55163,999,16761,.39072E-3,.151E-5,0
ONEWEB-0623,2023-004AA,2026-07-01T01:35:31.431264,13.17650568,.0002182,87.9129,3.1166,69.1836,290.9529,0,U,55164,999,16941,-.12107E-4,.8E-7,0
ONEWEB-0624,2023-004AB,2026-06-30T23:43:45.905664,13.12920481,.0001971,87.8951,347.8374,90.1025,270.0330,0,U,55165,999,16988,.54838E-2,.2E-4,0
ONEWEB-0625,2023-004AC,2026-07-01T01:20:58.036128,13.17650210,.0001698,87.9133,3.1145,90.6148,269.5178,0,U,55166,999,16940,-.10199E-3,-.27E-6,0
ONEWEB-0626,2023-004AD,2026-07-01T01:06:21.197088,13.17648040,.0002119,87.9134,3.1159,99.1031,261.0340,0,U,55167,999,16940,.37298E-4,.27E-6,0
ONEWEB-0627,2023-004AE,2026-07-01T00:49:21.643392,13.17647768,.0002031,87.9133,3.1187,78.0188,282.1171,0,U,55168,999,16940,-.41467E-4,-.3E-7,0
ONEWEB-0628,2023-004AF,2026-06-30T23:24:21.174048,13.12442952,.0001961,87.8954,347.9107,72.0544,288.0798,0,U,55169,999,16984,.6237E-3,.237E-5,0
ONEWEB-0629,2023-004AG,2026-07-01T00:14:08.486016,13.17648889,.0001637,87.9132,3.1205,85.4666,274.6653,0,U,55170,999,16940,.53951E-4,.34E-6,0
ONEWEB-0631,2023-004AH,2026-06-30T20:02:35.822112,13.18686134,.0002365,87.9182,332.7208,96.4723,263.6678,0,U,55171,999,17147,-.81909E-4,-.19E-6,0
ONEWEB-0709,2023-004AJ,2026-07-01T02:10:06.671136,13.11414276,.0002323,87.8877,18.3105,108.4754,251.6627,0,U,55172,999,16769,-.16079E-3,-.44E-6,0
ONEWEB-0710,2023-004AK,2026-07-01T00:34:46.596288,13.17650762,.0001962,87.9130,3.1123,85.9199,274.2157,0,U,55173,999,16940,.11656E-3,.58E-6,0
ONEWEB-0711,2023-004AL,2026-07-01T01:28:36.757056,13.11418009,.0002319,87.8881,18.3042,73.5576,286.5807,0,U,55174,999,16765,.82495E-3,.305E-5,0
ONEWEB-0713,2023-004AM,2026-07-01T01:55:28.379712,13.11415338,.000207,87.8880,18.3017,80.0202,280.1160,0,U,55175,999,16764,.89062E-3,.328E-5,0
ONEWEB-0715,2023-004AN,2026-07-01T01:48:08.726400,13.11415408,.0002398,87.8880,18.3037,98.4853,261.6547,0,U,55176,999,16768,.12403E-2,.452E-5,0
ONEWEB-0716,2023-004AP,2026-07-01T00:25:03.284832,13.17650765,.0001641,87.9131,3.1164,93.4161,266.7159,0,U,55177,999,16940,.10249E-3,.53E-6,0
ONEWEB-0717,2023-004AQ,2026-07-01T00:00:46.847808,13.17649376,.0002361,87.9143,3.1087,81.6044,278.5355,0,U,55178,999,16945,.31837E-4,.25E-6,0
ONEWEB-0719,2023-004AR,2026-07-01T00:15:21.559680,13.17649599,.0001676,87.9141,3.0871,88.2346,271.8978,0,U,55179,999,16940,.24033E-4,.22E-6,0
ONEWEB-0530,2023-029A,2026-06-30T22:52:56.072928,13.20771989,.0002104,87.9183,271.7248,87.1785,272.9589,0,U,55796,999,16296,.21592E-4,.22E-6,0
ONEWEB-0534,2023-029B,2026-06-30T22:35:57.010848,13.20772678,.0001938,87.9184,271.7282,102.8219,257.3131,0,U,55797,999,16296,-.12869E-3,-.39E-6,0
ONEWEB-0556,2023-029C,2026-06-30T22:45:37.590336,13.20770516,.0001179,87.9184,271.7254,89.3945,270.7323,0,U,55798,999,16296,-.95006E-4,-.26E-6,0
ONEWEB-0562,2023-029D,2026-07-01T00:15:21.074112,13.20771440,.0001798,87.9185,271.6943,75.6927,284.4406,0,U,55799,999,16297,.41483E-4,.3E-6,0
ONEWEB-0563,2023-029E,2026-07-01T00:08:04.241760,13.20772238,.0001906,87.9185,271.7254,106.1295,254.0048,0,U,55800,999,16296,-.29121E-3,-.105E-5,0
ONEWEB-0564,2023-029F,2026-07-01T03:36:34.369056,13.20771554,.0001927,87.9186,271.6702,89.5117,270.6237,0,U,55801,999,16299,-.80219E-4,-.2E-6,0
ONEWEB-0638,2023-029G,2026-06-30T17:07:41.901024,13.14503150,.00015043,87.8961,287.0552,89.6386,270.4916,0,U,55802,999,16117,-.10311132E-2,-.369E-5,0
ONEWEB-0639,2023-029H,2026-07-01T01:23:32.331840,13.19724878,.0002015,87.9181,302.2129,128.8148,231.3164,0,U,55803,999,16073,-.16227E-3,-.52E-6,0
ONEWEB-0640,2023-029J,2026-07-01T00:39:50.107392,13.14502188,.0001297,87.8960,286.9835,104.0385,256.0889,0,U,55804,999,16123,-.68043E-3,-.239E-5,0
