ONEWEB-0617             
1 55158U 23004U   26182.10561006 -.00000423  00000+0 -12304-2 0  9993
2 55158  87.8881  18.2976 0002156  79.7461 280.3910 13.11416250167682
ONEWEB-0618             
1 55159U 23004V   26182.21065560  .00007456  00000+0  41726-3 0  9992
2 55159  86.9089 171.9403 0009824 233.2190 126.8149 15.13258946184384
ONEWEB-0619             
1 55160U 23004W   26181.91954340 -.00000054  00000+0 -17253-3 0  9990
2 55160  87.9143   3.1173 0001644  77.2938 282.8377 13.17649761169409
ONEWEB-0620             
1 55161U 23004X   26182.10052034 -.00000279  00000+0 -82352-3 0  9993
2 55161  87.8873  18.3064 0002044  92.3521 267.7841 13.11414839167650
ONEWEB-0621             
1 55162U 23004Y   26182.05135493 -.00000145  00000+0 -44551-3 0  9990
2 55162  87.8888  18.3064 0001879  80.8731 279.2609 13.11418157167621
ONEWEB-0622             
1 55163U 23004Z   26182.05644781  .00000151  00000+0  39072-3 0  9993
2 55163  87.8890  18.3079 0002480  79.5010 280.6397 13.11417886167612
ONEWEB-0623             
1 55164U 23004AA  26182.06633601  .00000008  00000+0 -12107-4 0  9997
2 55164  87.9129   3.1166 0002182  69.1836 290.9529 13.17650568169411
ONEWEB-0624             
1 55165U 23004AB  26181.98872576  .00002000  00000+0  54838-2 0  9992
2 55165  87.8951 347.8374 0001971  90.1025 270.0330 13.12920481169881
ONEWEB-0625             
1 55166U 23004AC  26182.05622727 -.00000027  00000+0 -10199-3 0  9995
2 55166  87.9133   3.1145 0001698  90.6148 269.5178 13.17650210169406
ONEWEB-0626             
1 55167U 23004AD  26182.04607867  .00000027  00000+0  37298-4 0  9991
2 55167  87.9134   3.1159 0002119  99.1031 261.0340 13.17648040169403
ONEWEB-0627             
1 55168U 23004AE  26182.03427828 -.00000003  00000+0 -41467-4 0  9997
2 55168  87.9133   3.1187 0002031  78.0188 282.1171 13.17647768169408
ONEWEB-0628             
1 55169U 23004AF  26181.97524507  .00000237  00000+0  62370-3 0  9994
2 55169  87.8954 347.9107 0001961  72.0544 288.0798 13.12442952169842
ONEWEB-0629             
1 55170U 23004AG  26182.00982044  .00000034  00000+0  53951-4 0  9996
2 55170  87.9132   3.1205 0001637  85.4666 274.6653 13.17648889169401
ONEWEB-0631             
1 55171U 23004AH  26181.83513683 -.00000019  00000+0 -81909-4 0  9995
2 55171  87.9182 332.7208 0002365  96.4723 263.6678 13.18686134171477
ONEWEB-0709             
1 55172U 23004AJ  26182.09035499 -.00000044  00000+0 -16079-3 0  9992
2 55172  87.8877  18.3105 0002323 108.4754 251.6627 13.11414276167692
ONEWEB-0710             
1 55173U 23004AK  26182.02415042  .00000058  00000+0  11656-3 0  9991
2 55173  87.9130   3.1123 0001962  85.9199 274.2157 13.17650762169406
ONEWEB-0711             
1 55174U 23004AL  26182.06153654  .00000305  00000+0  82495-3 0  9998
2 55174  87.8881  18.3042 0002319  73.5576 286.5807 13.11418009167659
ONEWEB-0713             
1 55175U 23004AM  26182.08018958  .00000328  00000+0  89062-3 0  9990
2 55175  87.8880  18.3017 0002070  80.0202 280.1160 13.11415338167647
ONEWEB-0715             
1 55176U 23004AN  26182.07510100  .00000452  00000+0  12403-2 0  9998
2 55176  87.8880  18.3037 0002398  98.4853 261.6547 13.11415408167683
ONEWEB-0716             
1 55177U 23004AP  26182.01739913  .00000053  00000+0  10249-3 0  9992
2 55177  87.9131   3.1164 0001641  93.4161 266.7159 13.17650765169404
ONEWEB-0717             
1 55178U 23004AQ  26182.00054222  .00000025  00000+0  31837-4 0  9991
2 55178  87.9143   3.1087 0002361  81.6044 278.5355 13.17649376169451
ONEWEB-0719             
1 55179U 23004AR  26182.01066620  .00000022  00000+0  24033-4 0  9995
2 55179  87.9141   3.0871 0001676  88.2346 271.8978 13.17649599169405
ONEWEB-0530             
1 55796U 23029A   26181.95342677  .00000022  00000+0  21592-4 0  9995
2 55796  87.9183 271.7248 0002104  87.1785 272.9589 13.20771989162967
ONEWEB-0534             
1 55797U 23029B   26181.94163207 -.00000039  00000+0 -12869-3 0  9991
2 55797  87.9184 271.7282 0001938 102.8219 257.3131 13.20772678162964
ONEWEB-0556             
1 55798U 23029C   26181.94835174 -.00000026  00000+0 -95006-4 0  9992
2 55798  87.9184 271.7254 0001179  89.3945 270.7323 13.20770516162967
ONEWEB-0562             
1 55799U 23029D   26182.01066058  .00000030  00000+0  41483-4 0  9992
2 55799  87.9185 271.6943 0001798  75.6927 284.4406 13.20771440162970
ONEWEB-0563             
1 55800U 23029E   26182.00560465 -.00000105  00000+0 -29121-3 0  9994
2 55800  87.9185 271.7254 0001906 106.1295 254.0048 13.20772238162968
ONEWEB-0564             
1 55801U 23029F   26182.15039779 -.00000020  00000+0 -80219-4 0  9992
2 55801  87.9186 271.6702 0001927  89.5117 270.6237 13.20771554162994
ONEWEB-0638             
1 55802U 23029G   26181.71367941 -.00000369  00000+0 -10311-2 0  9999
2 55802  87.8961 287.0552 0001504  89.6386 270.4916 13.14503150161178
ONEWEB-0639             
1 55803U 23029H   26182.05801310 -.00000052  00000+0 -16227-3 0  9993
2 55803  87.9181 302.2129 0002015 128.8148 231.3164 13.19724878160733
ONEWEB-0640             
1 55804U 23029J   26182.02766328 -.00000239  00000+0 -68043-3 0  9990
2 55804  87.8960 286.9835 0001297 104.0385 256.0889 13.14502188161237
